CTC1_L_00676001-01
1 10000U 25617FP  26075.70040509  .00000000  00000+0  00000-0 0  9996
2 10000  60.0000   0.0000 0000000   0.0000   0.0000  1.91644749    15
CTC1_L_00676001-02
1 10001U 23006HH  26075.70040509  .00000000  00000+0  00000-0 0  9997
2 10001  60.0000   0.0000 0000000   0.0000  36.0000  1.91644749    15
CTC1_L_00676001-03
1 10002U 25004DH  26075.70040509  .00000000  00000+0  00000-0 0  9998
2 10002  60.0000   0.0000 0000000   0.0000  72.0000  1.91644749    16
CTC1_L_00676001-04
1 10003U 26630ZS  26075.70040509  .00000000  00000+0  00000-0 0  9995
2 10003  60.0000   0.0000 0000000   0.0000 108.0000  1.91644749    17
CTC1_L_00676001-05
1 10004U 22497YK  26075.70040509  .00000000  00000+0  00000-0 0  9993
2 10004  60.0000   0.0000 0000000   0.0000 144.0000  1.91644749    18
CTC1_L_00676001-06
1 10005U 22431RA  26075.70040509  .00000000  00000+0  00000-0 0  9992
2 10005  60.0000   0.0000 0000000   0.0000 180.0000  1.91644749    19
CTC1_L_00676001-07
1 10006U 25834RS  26075.70040509  .00000000  00000+0  00000-0 0  9993
2 10006  60.0000   0.0000 0000000   0.0000 216.0000  1.91644749    10
CTC1_L_00676001-08
1 10007U 22862Y   26075.70040509  .00000000  00000+0  00000-0 0  9992
2 10007  60.0000   0.0000 0000000   0.0000 252.0000  1.91644749    11
CTC1_L_00676001-09
1 10008U 25156SU  26075.70040509  .00000000  00000+0  00000-0 0  9992
2 10008  60.0000   0.0000 0000000   0.0000 288.0000  1.91644749    11
CTC1_L_00676001-10
1 10009U 23446WJ  26075.70040509  .00000000  00000+0  00000-0 0  9993
2 10009  60.0000   0.0000 0000000   0.0000 324.0000  1.91644749    13
CTC1_L_00676002-01
1 10010U 26659AJ  26075.70040509  .00000000  00000+0  00000-0 0  9994
2 10010  60.0000  30.0000 0000000   0.0000  12.0000  1.91644749    12
CTC1_L_00676002-02
1 10011U 22668MR  26075.70040509  .00000000  00000+0  00000-0 0  9991
2 10011  60.0000  30.0000 0000000   0.0000  48.0000  1.91644749    12
CTC1_L_00676002-03
1 10012U 24564ZL  26075.70040509  .00000000  00000+0  00000-0 0  9999
2 10012  60.0000  30.0000 0000000   0.0000  84.0000  1.91644749    13
CTC1_L_00676002-04
1 10013U 26996VJ  26075.70040509  .00000000  00000+0  00000-0 0  9991
2 10013  60.0000  30.0000 0000000   0.0000 120.0000  1.91644749    15
CTC1_L_00676002-05
1 10014U 26782ZZ  26075.70040509  .00000000  00000+0  00000-0 0  9995
2 10014  60.0000  30.0000 0000000   0.0000 156.0000  1.91644749    15
CTC1_L_00676002-06
1 10015U 23912SF  26075.70040509  .00000000  00000+0  00000-0 0  9998
2 10015  60.0000  30.0000 0000000   0.0000 192.0000  1.91644749    16
CTC1_L_00676002-07
1 10016U 26909RH  26075.70040509  .00000000  00000+0  00000-0 0  9998
2 10016  60.0000  30.0000 0000000   0.0000 228.0000  1.91644749    17
CTC1_L_00676002-08
1 10017U 22367YJ  26075.70040509  .00000000  00000+0  00000-0 0  9993
2 10017  60.0000  30.0000 0000000   0.0000 264.0000  1.91644749    18
CTC1_L_00676002-09
1 10018U 23246FR  26075.70040509  .00000000  00000+0  00000-0 0  9991
2 10018  60.0000  30.0000 0000000   0.0000 300.0000  1.91644749    10
CTC1_L_00676002-10
1 10019U 25784MQ  26075.70040509  .00000000  00000+0  00000-0 0  9991
2 10019  60.0000  30.0000 0000000   0.0000 336.0000  1.91644749    10
CTC1_L_00676003-01
1 10020U 22198MM  26075.70040509  .00000000  00000+0  00000-0 0  9999
2 10020  60.0000  60.0000 0000000   0.0000  24.0000  1.91644749    19
CTC1_L_00676003-02
1 10021U 24379AB  26075.70040509  .00000000  00000+0  00000-0 0  9993
2 10021  60.0000  60.0000 0000000   0.0000  60.0000  1.91644749    10
CTC1_L_00676003-03
1 10022U 26690RS  26075.70040509  .00000000  00000+0  00000-0 0  9992
2 10022  60.0000  60.0000 0000000   0.0000  96.0000  1.91644749    10
CTC1_L_00676003-04
1 10023U 26084XV  26075.70040509  .00000000  00000+0  00000-0 0  9990
2 10023  60.0000  60.0000 0000000   0.0000 132.0000  1.91644749    12
CTC1_L_00676003-05
1 10024U 23690ER  26075.70040509  .00000000  00000+0  00000-0 0  9991
2 10024  60.0000  60.0000 0000000   0.0000 168.0000  1.91644749    12
CTC1_L_00676003-06
1 10025U 23418ZM  26075.70040509  .00000000  00000+0  00000-0 0  9990
2 10025  60.0000  60.0000 0000000   0.0000 204.0000  1.91644749    14
CTC1_L_00676003-07
1 10026U 22488PV  26075.70040509  .00000000  00000+0  00000-0 0  9997
2 10026  60.0000  60.0000 0000000   0.0000 240.0000  1.91644749    15
CTC1_L_00676003-08
1 10027U 24812JW  26075.70040509  .00000000  00000+0  00000-0 0  9991
2 10027  60.0000  60.0000 0000000   0.0000 276.0000  1.91644749    15
CTC1_L_00676003-09
1 10028U 22538BQ  26075.70040509  .00000000  00000+0  00000-0 0  9995
2 10028  60.0000  60.0000 0000000   0.0000 312.0000  1.91644749    17
CTC1_L_00676003-10
1 10029U 25879DE  26075.70040509  .00000000  00000+0  00000-0 0  9997
2 10029  60.0000  60.0000 0000000   0.0000 348.0000  1.91644749    17
CTC1_L_00676004-01
1 10030U 26790QS  26075.70040509  .00000000  00000+0  00000-0 0  9992
2 10030  60.0000  90.0000 0000000   0.0000  36.0000  1.91644749    16
CTC1_L_00676004-02
1 10031U 25936SZ  26075.70040509  .00000000  00000+0  00000-0 0  9994
2 10031  60.0000  90.0000 0000000   0.0000  72.0000  1.91644749    17
CTC1_L_00676004-03
1 10032U 25246PA  26075.70040509  .00000000  00000+0  00000-0 0  9999
2 10032  60.0000  90.0000 0000000   0.0000 108.0000  1.91644749    18
CTC1_L_00676004-04
1 10033U 22513IP  26075.70040509  .00000000  00000+0  00000-0 0  9994
2 10033  60.0000  90.0000 0000000   0.0000 144.0000  1.91644749    19
CTC1_L_00676004-05
1 10034U 24559KH  26075.70040509  .00000000  00000+0  00000-0 0  9997
2 10034  60.0000  90.0000 0000000   0.0000 180.0000  1.91644749    10
CTC1_L_00676004-06
1 10035U 26939PD  26075.70040509  .00000000  00000+0  00000-0 0  9992
2 10035  60.0000  90.0000 0000000   0.0000 216.0000  1.91644749    11
CTC1_L_00676004-07
1 10036U 23317XH  26075.70040509  .00000000  00000+0  00000-0 0  9990
2 10036  60.0000  90.0000 0000000   0.0000 252.0000  1.91644749    12
CTC1_L_00676004-08
1 10037U 22737S   26075.70040509  .00000000  00000+0  00000-0 0  9996
2 10037  60.0000  90.0000 0000000   0.0000 288.0000  1.91644749    12
CTC1_L_00676004-09
1 10038U 24442MT  26075.70040509  .00000000  00000+0  00000-0 0  9992
2 10038  60.0000  90.0000 0000000   0.0000 324.0000  1.91644749    14
CTC1_L_00676004-10
1 10039U 23095BG  26075.70040509  .00000000  00000+0  00000-0 0  9996
2 10039  60.0000  90.0000 0000000   0.0000   0.0000  1.91644749    16
CTC1_L_00676005-01
1 10040U 25331DQ  26075.70040509  .00000000  00000+0  00000-0 0  9993
2 10040  60.0000 120.0000 0000000   0.0000  48.0000  1.91644749    14
CTC1_L_00676005-02
1 10041U 26574OH  26075.70040509  .00000000  00000+0  00000-0 0  9994
2 10041  60.0000 120.0000 0000000   0.0000  84.0000  1.91644749    15
CTC1_L_00676005-03
1 10042U 25017OU  26075.70040509  .00000000  00000+0  00000-0 0  9996
2 10042  60.0000 120.0000 0000000   0.0000 120.0000  1.91644749    17
CTC1_L_00676005-04
1 10043U 24332DO  26075.70040509  .00000000  00000+0  00000-0 0  9996
2 10043  60.0000 120.0000 0000000   0.0000 156.0000  1.91644749    17
CTC1_L_00676005-05
1 10044U 26795RR  26075.70040509  .00000000  00000+0  00000-0 0  9992
2 10044  60.0000 120.0000 0000000   0.0000 192.0000  1.91644749    18
CTC1_L_00676005-06
1 10045U 26237OB  26075.70040509  .00000000  00000+0  00000-0 0  9994
2 10045  60.0000 120.0000 0000000   0.0000 228.0000  1.91644749    19
CTC1_L_00676005-07
1 10046U 26037BL  26075.70040509  .00000000  00000+0  00000-0 0  9993
2 10046  60.0000 120.0000 0000000   0.0000 264.0000  1.91644749    10
CTC1_L_00676005-08
1 10047U 23871QU  26075.70040509  .00000000  00000+0  00000-0 0  9997
2 10047  60.0000 120.0000 0000000   0.0000 300.0000  1.91644749    12
CTC1_L_00676005-09
1 10048U 22042WT  26075.70040509  .00000000  00000+0  00000-0 0  9997
2 10048  60.0000 120.0000 0000000   0.0000 336.0000  1.91644749    12
CTC1_L_00676005-10
1 10049U 26293CM  26075.70040509  .00000000  00000+0  00000-0 0  9990
2 10049  60.0000 120.0000 0000000   0.0000  12.0000  1.91644749    14
CTC1_L_00676006-01
1 10050U 23751LS  26075.70040509  .00000000  00000+0  00000-0 0  9998
2 10050  60.0000 150.0000 0000000   0.0000  60.0000  1.91644749    12
CTC1_L_00676006-02
1 10051U 23348HV  26075.70040509  .00000000  00000+0  00000-0 0  9991
2 10051  60.0000 150.0000 0000000   0.0000  96.0000  1.91644749    12
CTC1_L_00676006-03
1 10052U 26519ZJ  26075.70040509  .00000000  00000+0  00000-0 0  9995
2 10052  60.0000 150.0000 0000000   0.0000 132.0000  1.91644749    14
CTC1_L_00676006-04
1 10053U 25800BI  26075.70040509  .00000000  00000+0  00000-0 0  9998
2 10053  60.0000 150.0000 0000000   0.0000 168.0000  1.91644749    14
CTC1_L_00676006-05
1 10054U 25384RS  26075.70040509  .00000000  00000+0  00000-0 0  9996
2 10054  60.0000 150.0000 0000000   0.0000 204.0000  1.91644749    16
CTC1_L_00676006-06
1 10055U 23902EL  26075.70040509  .00000000  00000+0  00000-0 0  9991
2 10055  60.0000 150.0000 0000000   0.0000 240.0000  1.91644749    17
CTC1_L_00676006-07
1 10056U 26837BA  26075.70040509  .00000000  00000+0  00000-0 0  9992
2 10056  60.0000 150.0000 0000000   0.0000 276.0000  1.91644749    17
CTC1_L_00676006-08
1 10057U 22200IJ  26075.70040509  .00000000  00000+0  00000-0 0  9993
2 10057  60.0000 150.0000 0000000   0.0000 312.0000  1.91644749    19
CTC1_L_00676006-09
1 10058U 25601HK  26075.70040509  .00000000  00000+0  00000-0 0  9992
2 10058  60.0000 150.0000 0000000   0.0000 348.0000  1.91644749    19
CTC1_L_00676006-10
1 10059U 26487QC  26075.70040509  .00000000  00000+0  00000-0 0  9996
2 10059  60.0000 150.0000 0000000   0.0000  24.0000  1.91644749    11
CTC1_L_00676007-01
1 10060U 22347OV  26075.70040509  .00000000  00000+0  00000-0 0  9999
2 10060  60.0000 180.0000 0000000   0.0000  72.0000  1.91644749    19
CTC1_L_00676007-02
1 10061U 22211IE  26075.70040509  .00000000  00000+0  00000-0 0  9990
2 10061  60.0000 180.0000 0000000   0.0000 108.0000  1.91644749    10
